[{"OBJECT_NAME":"FENGYUN 1C DEB","OBJECT_ID":"1999-025BRU","EPOCH":"2026-04-27T05:00:58.559904","MEAN_MOTION":14.16201115,"ECCENTRICITY":0.0094061,"INCLINATION":99.2651,"RA_OF_ASC_NODE":247.0938,"ARG_OF_PERICENTER":127.5702,"MEAN_ANOMALY":233.406,"EPHEMERIS_TYPE":0,"CLASSIFICATION_TYPE":"U","NORAD_CAT_ID":31364,"ELEMENT_SET_NO":999,"REV_AT_EPOCH":96793,"BSTAR":0.0031734,"MEAN_MOTION_DOT":6.517e-5,"MEAN_MOTION_DDOT":0},{"OBJECT_NAME":"FENGYUN 1C DEB","OBJECT_ID":"1999-025BRV","EPOCH":"2026-04-27T05:13:11.330400","MEAN_MOTION":14.43631359,"ECCENTRICITY":0.0042377,"INCLINATION":98.6659,"RA_OF_ASC_NODE":209.5576,"ARG_OF_PERICENTER":173.8687,"MEAN_ANOMALY":186.303,"EPHEMERIS_TYPE":0,"CLASSIFICATION_TYPE":"U","NORAD_CAT_ID":31365,"ELEMENT_SET_NO":999,"REV_AT_EPOCH":98582,"BSTAR":0.0020285,"MEAN_MOTION_DOT":6.916e-5,"MEAN_MOTION_DDOT":0},{"OBJECT_NAME":"FENGYUN 1C DEB","OBJECT_ID":"1999-025BRX","EPOCH":"2026-04-27T05:04:33.188736","MEAN_MOTION":14.48106997,"ECCENTRICITY":0.0097417,"INCLINATION":98.7369,"RA_OF_ASC_NODE":21.0528,"ARG_OF_PERICENTER":328.628,"MEAN_ANOMALY":183.7534,"EPHEMERIS_TYPE":0,"CLASSIFICATION_TYPE":"U","NORAD_CAT_ID":31367,"ELEMENT_SET_NO":999,"REV_AT_EPOCH":406,"BSTAR":0.00048505,"MEAN_MOTION_DOT":1.864e-5,"MEAN_MOTION_DDOT":0},{"OBJECT_NAME":"FENGYUN 1C DEB","OBJECT_ID":"1999-025BRZ","EPOCH":"2026-04-27T04:46:50.852352","MEAN_MOTION":14.1957903,"ECCENTRICITY":0.0053959,"INCLINATION":98.6356,"RA_OF_ASC_NODE":99.9797,"ARG_OF_PERICENTER":267.956,"MEAN_ANOMALY":110.8217,"EPHEMERIS_TYPE":0,"CLASSIFICATION_TYPE":"U","NORAD_CAT_ID":31369,"ELEMENT_SET_NO":999,"REV_AT_EPOCH":66249,"BSTAR":0.00022159,"MEAN_MOTION_DOT":4.31e-6,"MEAN_MOTION_DDOT":0},{"OBJECT_NAME":"FENGYUN 1C DEB","OBJECT_ID":"1999-025BSA","EPOCH":"2026-04-26T11:12:41.358240","MEAN_MOTION":14.09889308,"ECCENTRICITY":0.00326295,"INCLINATION":98.7581,"RA_OF_ASC_NODE":117.8449,"ARG_OF_PERICENTER":275.9224,"MEAN_ANOMALY":83.8228,"EPHEMERIS_TYPE":0,"CLASSIFICATION_TYPE":"U","NORAD_CAT_ID":31370,"ELEMENT_SET_NO":999,"REV_AT_EPOCH":98192,"BSTAR":0.0002537651,"MEAN_MOTION_DOT":4.06e-6,"MEAN_MOTION_DDOT":0},{"OBJECT_NAME":"FENGYUN 1C DEB","OBJECT_ID":"1999-025BSB","EPOCH":"2026-04-26T08:02:34.799136","MEAN_MOTION":14.04853754,"ECCENTRICITY":0.00769068,"INCLINATION":98.748,"RA_OF_ASC_NODE":149.6316,"ARG_OF_PERICENTER":228.2961,"MEAN_ANOMALY":131.161,"EPHEMERIS_TYPE":0,"CLASSIFICATION_TYPE":"U","NORAD_CAT_ID":31371,"ELEMENT_SET_NO":999,"REV_AT_EPOCH":97636,"BSTAR":0.00046419424,"MEAN_MOTION_DOT":7.23e-6,"MEAN_MOTION_DDOT":0},{"OBJECT_NAME":"FENGYUN 1C DEB","OBJECT_ID":"1999-025BSC","EPOCH":"2026-04-26T17:16:30.586080","MEAN_MOTION":14.27685111,"ECCENTRICITY":0.00341909,"INCLINATION":99.3789,"RA_OF_ASC_NODE":122.435,"ARG_OF_PERICENTER":52.3744,"MEAN_ANOMALY":308.053,"EPHEMERIS_TYPE":0,"CLASSIFICATION_TYPE":"U","NORAD_CAT_ID":31372,"ELEMENT_SET_NO":999,"REV_AT_EPOCH":97776,"BSTAR":0.0013814271,"MEAN_MOTION_DOT":3.379e-5,"MEAN_MOTION_DDOT":0},{"OBJECT_NAME":"FENGYUN 1C DEB","OBJECT_ID":"1999-025BSE","EPOCH":"2026-04-20T04:59:05.764704","MEAN_MOTION":14.3595477,"ECCENTRICITY":0.01367761,"INCLINATION":99.6241,"RA_OF_ASC_NODE":261.4669,"ARG_OF_PERICENTER":335.9483,"MEAN_ANOMALY":23.535,"EPHEMERIS_TYPE":0,"CLASSIFICATION_TYPE":"U","NORAD_CAT_ID":31374,"ELEMENT_SET_NO":999,"REV_AT_EPOCH":97895,"BSTAR":0.0011788017,"MEAN_MOTION_DOT":3.75e-5,"MEAN_MOTION_DDOT":0},{"OBJECT_NAME":"FENGYUN 1C DEB","OBJECT_ID":"1999-025BSG","EPOCH":"2026-04-26T18:12:04.581504","MEAN_MOTION":14.64752018,"ECCENTRICITY":0.00460076,"INCLINATION":98.8364,"RA_OF_ASC_NODE":47.5191,"ARG_OF_PERICENTER":210.1892,"MEAN_ANOMALY":149.6657,"EPHEMERIS_TYPE":0,"CLASSIFICATION_TYPE":"U","NORAD_CAT_ID":31376,"ELEMENT_SET_NO":999,"REV_AT_EPOCH":114,"BSTAR":0.0016368747,"MEAN_MOTION_DOT":8.811e-5,"MEAN_MOTION_DDOT":0},{"OBJECT_NAME":"FENGYUN 1C DEB","OBJECT_ID":"1999-025BSJ","EPOCH":"2026-04-18T04:59:42.758592","MEAN_MOTION":13.80333406,"ECCENTRICITY":0.01678633,"INCLINATION":100.75,"RA_OF_ASC_NODE":19.3049,"ARG_OF_PERICENTER":239.5726,"MEAN_ANOMALY":118.8743,"EPHEMERIS_TYPE":0,"CLASSIFICATION_TYPE":"U","NORAD_CAT_ID":31378,"ELEMENT_SET_NO":999,"REV_AT_EPOCH":95968,"BSTAR":0.0004756568,"MEAN_MOTION_DOT":4.96e-6,"MEAN_MOTION_DDOT":0},{"OBJECT_NAME":"FENGYUN 1C DEB","OBJECT_ID":"1999-025BSM","EPOCH":"2026-04-26T23:53:02.841792","MEAN_MOTION":14.37645681,"ECCENTRICITY":0.0195895,"INCLINATION":98.4784,"RA_OF_ASC_NODE":203.6838,"ARG_OF_PERICENTER":348.337,"MEAN_ANOMALY":11.3311,"EPHEMERIS_TYPE":0,"CLASSIFICATION_TYPE":"U","NORAD_CAT_ID":31381,"ELEMENT_SET_NO":999,"REV_AT_EPOCH":99343,"BSTAR":0.00025288,"MEAN_MOTION_DOT":8.96e-6,"MEAN_MOTION_DDOT":0},{"OBJECT_NAME":"FENGYUN 1C DEB","OBJECT_ID":"1999-025BSP","EPOCH":"2026-04-25T11:05:31.892352","MEAN_MOTION":14.06018255,"ECCENTRICITY":0.01067613,"INCLINATION":99.0492,"RA_OF_ASC_NODE":182.4098,"ARG_OF_PERICENTER":305.4629,"MEAN_ANOMALY":68.7762,"EPHEMERIS_TYPE":0,"CLASSIFICATION_TYPE":"U","NORAD_CAT_ID":31383,"ELEMENT_SET_NO":999,"REV_AT_EPOCH":97248,"BSTAR":0.00057631533,"MEAN_MOTION_DOT":9.49e-6,"MEAN_MOTION_DDOT":0},{"OBJECT_NAME":"FENGYUN 1C DEB","OBJECT_ID":"1999-025BSQ","EPOCH":"2026-04-26T20:19:05.128032","MEAN_MOTION":13.87658772,"ECCENTRICITY":0.04363385,"INCLINATION":98.47,"RA_OF_ASC_NODE":75.6131,"ARG_OF_PERICENTER":29.4471,"MEAN_ANOMALY":23.2306,"EPHEMERIS_TYPE":0,"CLASSIFICATION_TYPE":"U","NORAD_CAT_ID":31384,"ELEMENT_SET_NO":999,"REV_AT_EPOCH":94897,"BSTAR":0.0031301184,"MEAN_MOTION_DOT":7.894e-5,"MEAN_MOTION_DDOT":0},{"OBJECT_NAME":"FENGYUN 1C DEB","OBJECT_ID":"1999-025BSR","EPOCH":"2026-04-27T01:02:23.247168","MEAN_MOTION":14.44206039,"ECCENTRICITY":0.013352,"INCLINATION":98.9488,"RA_OF_ASC_NODE":219.2312,"ARG_OF_PERICENTER":13.175,"MEAN_ANOMALY":167.2074,"EPHEMERIS_TYPE":0,"CLASSIFICATION_TYPE":"U","NORAD_CAT_ID":31385,"ELEMENT_SET_NO":999,"REV_AT_EPOCH":568,"BSTAR":0.00010509,"MEAN_MOTION_DOT":3.47e-6,"MEAN_MOTION_DDOT":0},{"OBJECT_NAME":"FENGYUN 1C DEB","OBJECT_ID":"1999-025BSS","EPOCH":"2026-04-26T11:42:25.903584","MEAN_MOTION":13.86804865,"ECCENTRICITY":0.01943451,"INCLINATION":98.4357,"RA_OF_ASC_NODE":123.2772,"ARG_OF_PERICENTER":274.3309,"MEAN_ANOMALY":83.5666,"EPHEMERIS_TYPE":0,"CLASSIFICATION_TYPE":"U","NORAD_CAT_ID":31386,"ELEMENT_SET_NO":999,"REV_AT_EPOCH":95729,"BSTAR":0.001525124,"MEAN_MOTION_DOT":2.025e-5,"MEAN_MOTION_DDOT":0},{"OBJECT_NAME":"FENGYUN 1C DEB","OBJECT_ID":"1999-025BST","EPOCH":"2026-04-27T03:34:08.402304","MEAN_MOTION":14.13739174,"ECCENTRICITY":0.0241679,"INCLINATION":99.1523,"RA_OF_ASC_NODE":4.0478,"ARG_OF_PERICENTER":150.0148,"MEAN_ANOMALY":211.512,"EPHEMERIS_TYPE":0,"CLASSIFICATION_TYPE":"U","NORAD_CAT_ID":31387,"ELEMENT_SET_NO":999,"REV_AT_EPOCH":98210,"BSTAR":0.00017309,"MEAN_MOTION_DOT":3.84e-6,"MEAN_MOTION_DDOT":0},{"OBJECT_NAME":"FENGYUN 1C DEB","OBJECT_ID":"1999-025BSU","EPOCH":"2026-04-27T04:57:20.500128","MEAN_MOTION":14.07503303,"ECCENTRICITY":0.0046876,"INCLINATION":98.8183,"RA_OF_ASC_NODE":106.8323,"ARG_OF_PERICENTER":179.4948,"MEAN_ANOMALY":196.7989,"EPHEMERIS_TYPE":0,"CLASSIFICATION_TYPE":"U","NORAD_CAT_ID":31388,"ELEMENT_SET_NO":999,"REV_AT_EPOCH":98347,"BSTAR":0.00010618,"MEAN_MOTION_DOT":1.38e-6,"MEAN_MOTION_DDOT":0},{"OBJECT_NAME":"FENGYUN 1C DEB","OBJECT_ID":"1999-025BSV","EPOCH":"2026-04-27T00:21:37.193184","MEAN_MOTION":14.67957004,"ECCENTRICITY":0.0027878,"INCLINATION":99.0447,"RA_OF_ASC_NODE":300.6849,"ARG_OF_PERICENTER":131.4062,"MEAN_ANOMALY":19.6711,"EPHEMERIS_TYPE":0,"CLASSIFICATION_TYPE":"U","NORAD_CAT_ID":31389,"ELEMENT_SET_NO":999,"REV_AT_EPOCH":98477,"BSTAR":0.0041708,"MEAN_MOTION_DOT":0.00024042,"MEAN_MOTION_DDOT":0},{"OBJECT_NAME":"FENGYUN 1C DEB","OBJECT_ID":"1999-025BSW","EPOCH":"2026-04-25T23:21:15.686208","MEAN_MOTION":14.45610136,"ECCENTRICITY":0.01086078,"INCLINATION":98.8514,"RA_OF_ASC_NODE":288.0988,"ARG_OF_PERICENTER":244.7173,"MEAN_ANOMALY":268.0645,"EPHEMERIS_TYPE":0,"CLASSIFICATION_TYPE":"U","NORAD_CAT_ID":31410,"ELEMENT_SET_NO":999,"REV_AT_EPOCH":99690,"BSTAR":0.00061488631,"MEAN_MOTION_DOT":2.284e-5,"MEAN_MOTION_DDOT":0},{"OBJECT_NAME":"FENGYUN 1C DEB","OBJECT_ID":"1999-025BSX","EPOCH":"2026-04-24T10:46:14.867616","MEAN_MOTION":14.28272943,"ECCENTRICITY":0.01005873,"INCLINATION":98.6473,"RA_OF_ASC_NODE":179.647,"ARG_OF_PERICENTER":226.108,"MEAN_ANOMALY":149.8045,"EPHEMERIS_TYPE":0,"CLASSIFICATION_TYPE":"U","NORAD_CAT_ID":31411,"ELEMENT_SET_NO":999,"REV_AT_EPOCH":96374,"BSTAR":0.00027914372,"MEAN_MOTION_DOT":6.9e-6,"MEAN_MOTION_DDOT":0},{"OBJECT_NAME":"FENGYUN 1C DEB","OBJECT_ID":"1999-025BSY","EPOCH":"2026-04-24T18:46:51.751488","MEAN_MOTION":14.10639935,"ECCENTRICITY":0.00818203,"INCLINATION":98.5581,"RA_OF_ASC_NODE":57.2225,"ARG_OF_PERICENTER":316.797,"MEAN_ANOMALY":42.6802,"EPHEMERIS_TYPE":0,"CLASSIFICATION_TYPE":"U","NORAD_CAT_ID":31412,"ELEMENT_SET_NO":999,"REV_AT_EPOCH":62867,"BSTAR":0.00086848538,"MEAN_MOTION_DOT":1.557e-5,"MEAN_MOTION_DDOT":0},{"OBJECT_NAME":"FENGYUN 1C DEB","OBJECT_ID":"1999-025BTB","EPOCH":"2026-04-25T04:11:13.927200","MEAN_MOTION":14.31612621,"ECCENTRICITY":0.00635488,"INCLINATION":99.658,"RA_OF_ASC_NODE":86.8308,"ARG_OF_PERICENTER":55.6409,"MEAN_ANOMALY":305.076,"EPHEMERIS_TYPE":0,"CLASSIFICATION_TYPE":"U","NORAD_CAT_ID":31415,"ELEMENT_SET_NO":999,"REV_AT_EPOCH":64739,"BSTAR":0.001135932,"MEAN_MOTION_DOT":3.041e-5,"MEAN_MOTION_DDOT":0},{"OBJECT_NAME":"FENGYUN 1C DEB","OBJECT_ID":"1999-025BTC","EPOCH":"2026-04-26T10:15:11.013984","MEAN_MOTION":14.40947652,"ECCENTRICITY":0.01327094,"INCLINATION":99.028,"RA_OF_ASC_NODE":179.3218,"ARG_OF_PERICENTER":213.0575,"MEAN_ANOMALY":146.2266,"EPHEMERIS_TYPE":0,"CLASSIFICATION_TYPE":"U","NORAD_CAT_ID":31416,"ELEMENT_SET_NO":999,"REV_AT_EPOCH":67459,"BSTAR":0.00025208152,"MEAN_MOTION_DOT":8.44e-6,"MEAN_MOTION_DDOT":0}]
